start=new Date('2023-06-08T00:00:00.000Z').valueOf();
sats=[{"REF_FRAME":"TEME","TIME_SYSTEM":"UTC","SITE":"AFETR","EPHEMERIS_TYPE":"0","OBJECT_TYPE":"PAYLOAD","COUNTRY_CODE":"US","TLE_LINE1":"1 47148U 20088AC  23158.64947603 -.00000757  00000-0 -31900-4 0  9998","NORAD_CAT_ID":"47148","OBJECT_NAME":"STARLINK-1861","ARG_OF_PERICENTER":"84.7472","LAUNCH_DATE":"2020-11-25","MEAN_MOTION_DDOT":"0.0000000000000","TLE_LINE2":"2 47148  53.0549 127.9109 0001008  84.7472 275.3632 15.06408212140341","SEMIMAJOR_AXIS":"6925.323","CLASSIFICATION_TYPE":"U","PERIOD":"95.592","ELEMENT_SET_NO":"999","RA_OF_ASC_NODE":"127.9109","CENTER_NAME":"EARTH","EPOCH":"2023-06-07T15:35:14.728992","ECCENTRICITY":"0.00010080","GP_ID":"233428108","REV_AT_EPOCH":"14034","PERIAPSIS":"546.490","MEAN_ANOMALY":"275.3632","INCLINATION":"53.0549","BSTAR":"-0.00003190000000","MEAN_MOTION_DOT":"-0.00000757","APOAPSIS":"547.886","MEAN_MOTION":"15.06408212","FILE":"3927436","RCS_SIZE":"LARGE","MEAN_ELEMENT_THEORY":"SGP4","OBJECT_ID":"2020-088AC","DECAY_DATE":null},{"MEAN_MOTION":"15.06406047","RCS_SIZE":"LARGE","FILE":"3927436","APOAPSIS":"547.870","MEAN_MOTION_DOT":"0.00001289","DECAY_DATE":null,"MEAN_ELEMENT_THEORY":"SGP4","OBJECT_ID":"2020-088AD","ECCENTRICITY":"0.00009750","GP_ID":"233428857","EPOCH":"2023-06-07T22:38:31.914816","BSTAR":"0.00010538000000","PERIAPSIS":"546.520","MEAN_ANOMALY":"270.0534","INCLINATION":"53.0540","REV_AT_EPOCH":"14098","CENTER_NAME":"EARTH","RA_OF_ASC_NODE":"136.5843","PERIOD":"95.592","ELEMENT_SET_NO":"999","TIME_SYSTEM":"UTC","SITE":"AFETR","EPHEMERIS_TYPE":"0","OBJECT_TYPE":"PAYLOAD","REF_FRAME":"TEME","OBJECT_NAME":"STARLINK-1862","NORAD_CAT_ID":"47149","TLE_LINE2":"2 47149  53.0540 136.5843 0000975  90.0566 270.0534 15.06406047140987","SEMIMAJOR_AXIS":"6925.330","CLASSIFICATION_TYPE":"U","MEAN_MOTION_DDOT":"0.0000000000000","LAUNCH_DATE":"2020-11-25","ARG_OF_PERICENTER":"90.0566","COUNTRY_CODE":"US","TLE_LINE1":"1 47149U 20088AD  23158.94342494  .00001289  00000-0  10538-3 0  9991"},{"CENTER_NAME":"EARTH","ELEMENT_SET_NO":"999","PERIOD":"95.592","RA_OF_ASC_NODE":"126.6161","TIME_SYSTEM":"UTC","SITE":"AFETR","EPHEMERIS_TYPE":"0","OBJECT_TYPE":"PAYLOAD","REF_FRAME":"TEME","OBJECT_NAME":"STARLINK-1863","NORAD_CAT_ID":"47150","LAUNCH_DATE":"2020-11-25","ARG_OF_PERICENTER":"89.9668","TLE_LINE2":"2 47150  53.0541 126.6161 0001124  89.9668 270.1450 15.06405929140391","SEMIMAJOR_AXIS":"6925.330","CLASSIFICATION_TYPE":"U","MEAN_MOTION_DDOT":"0.0000000000000","COUNTRY_CODE":"US","TLE_LINE1":"1 47150U 20088AE  23158.93697874  .00000327  00000-0  40813-4 0  9999","MEAN_MOTION":"15.06405929","FILE":"3927436","RCS_SIZE":"LARGE","MEAN_MOTION_DOT":"0.00000327","APOAPSIS":"547.974","DECAY_DATE":null,"MEAN_ELEMENT_THEORY":"SGP4","OBJECT_ID":"2020-088AE","ECCENTRICITY":"0.00011240","GP_ID":"233429609","EPOCH":"2023-06-07T22:29:14.963136","BSTAR":"0.00004081300000","REV_AT_EPOCH":"14039","PERIAPSIS":"546.417","INCLINATION":"53.0541","MEAN_ANOMALY":"270.1450"},{"MEAN_MOTION":"15.06399314","RCS_SIZE":"LARGE","FILE":"3927436","MEAN_MOTION_DOT":"0.00000470","APOAPSIS":"548.166","DECAY_DATE":null,"MEAN_ELEMENT_THEORY":"SGP4","OBJECT_ID":"2020-088AF","ECCENTRICITY":"0.00013720","GP_ID":"233429360","EPOCH":"2023-06-07T16:05:46.091040","BSTAR":"0.00005047000000","REV_AT_EPOCH":"14020","MEAN_ANOMALY":"272.1330","PERIAPSIS":"546.266","INCLINATION":"53.0531","CENTER_NAME":"EARTH","PERIOD":"95.592","ELEMENT_SET_NO":"999","RA_OF_ASC_NODE":"137.8100","TIME_SYSTEM":"UTC","SITE":"AFETR","OBJECT_TYPE":"PAYLOAD","EPHEMERIS_TYPE":"0","REF_FRAME":"TEME","OBJECT_NAME":"STARLINK-1864","NORAD_CAT_ID":"47151","ARG_OF_PERICENTER":"87.9816","LAUNCH_DATE":"2020-11-25","TLE_LINE2":"2 47151  53.0531 137.8100 0001372  87.9816 272.1330 15.06399314140205","SEMIMAJOR_AXIS":"6925.351","CLASSIFICATION_TYPE":"U","MEAN_MOTION_DDOT":"0.0000000000000","COUNTRY_CODE":"US","TLE_LINE1":"1 47151U 20088AF  23158.67067235  .00000470  00000-0  50470-4 0  9992"},{"APOAPSIS":"548.022","MEAN_MOTION_DOT":"-0.00000197","MEAN_MOTION":"15.06394644","FILE":"3927436","RCS_SIZE":"LARGE","MEAN_ELEMENT_THEORY":"SGP4","OBJECT_ID":"2020-088AG","DECAY_DATE":null,"EPOCH":"2023-06-07T15:43:10.908768","ECCENTRICITY":"0.00011430","GP_ID":"233428608","PERIAPSIS":"546.438","INCLINATION":"53.0533","MEAN_ANOMALY":"269.4457","REV_AT_EPOCH":"14020","BSTAR":"0.00000562900000","RA_OF_ASC_NODE":"137.8768","ELEMENT_SET_NO":"999","PERIOD":"95.592","CENTER_NAME":"EARTH","REF_FRAME":"TEME","SITE":"AFETR","TIME_SYSTEM":"UTC","OBJECT_TYPE":"PAYLOAD","EPHEMERIS_TYPE":"0","COUNTRY_CODE":"US","TLE_LINE1":"1 47152U 20088AG  23158.65498737 -.00000197  00000-0  56290-5 0  9990","OBJECT_NAME":"STARLINK-1866","NORAD_CAT_ID":"47152","TLE_LINE2":"2 47152  53.0533 137.8768 0001143  90.6663 269.4457 15.06394644140205","CLASSIFICATION_TYPE":"U","SEMIMAJOR_AXIS":"6925.365","MEAN_MOTION_DDOT":"0.0000000000000","ARG_OF_PERICENTER":"90.6663","LAUNCH_DATE":"2020-11-25"},{"APOAPSIS":"547.947","MEAN_MOTION_DOT":"-0.00000149","RCS_SIZE":"LARGE","FILE":"3927436","MEAN_MOTION":"15.06395759","OBJECT_ID":"2020-088AH","MEAN_ELEMENT_THEORY":"SGP4","DECAY_DATE":null,"EPOCH":"2023-06-07T15:41:15.837792","GP_ID":"233428358","ECCENTRICITY":"0.00010410","PERIAPSIS":"546.506","INCLINATION":"53.0543","MEAN_ANOMALY":"277.3361","REV_AT_EPOCH":"14013","BSTAR":"0.00000886300000","RA_OF_ASC_NODE":"143.1300","PERIOD":"95.592","ELEMENT_SET_NO":"999","CENTER_NAME":"EARTH","REF_FRAME":"TEME","EPHEMERIS_TYPE":"0","OBJECT_TYPE":"PAYLOAD","TIME_SYSTEM":"UTC","SITE":"AFETR","TLE_LINE1":"1 47153U 20088AH  23158.65365553 -.00000149  00000-0  88630-5 0  9990","COUNTRY_CODE":"US","MEAN_MOTION_DDOT":"0.0000000000000","TLE_LINE2":"2 47153  53.0543 143.1300 0001041  82.7746 277.3361 15.06395759140132","SEMIMAJOR_AXIS":"6925.362","CLASSIFICATION_TYPE":"U","ARG_OF_PERICENTER":"82.7746","LAUNCH_DATE":"2020-11-25","OBJECT_NAME":"STARLINK-1867","NORAD_CAT_ID":"47153"},{"PERIAPSIS":"339.009","MEAN_ANOMALY":"269.7234","INCLINATION":"53.0472","REV_AT_EPOCH":"14063","BSTAR":"0.00000733380000","EPOCH":"2023-06-07T03:11:39.359616","ECCENTRICITY":"0.00010730","GP_ID":"233396397","MEAN_ELEMENT_THEORY":"SGP4","OBJECT_ID":"2020-088AJ","DECAY_DATE":null,"APOAPSIS":"340.451","MEAN_MOTION_DOT":"0.00000546","MEAN_MOTION":"15.76724702","FILE":"3927174","RCS_SIZE":"LARGE","COUNTRY_CODE":"US","TLE_LINE1":"1 47154U 20088AJ  23158.13309444  .00000546  00000-0  73338-5 0  9990","NORAD_CAT_ID":"47154","OBJECT_NAME":"STARLINK-1868","MEAN_MOTION_DDOT":"0.0000000000000","TLE_LINE2":"2 47154  53.0472 104.1863 0001073  90.3909 269.7234 15.76724702140636","SEMIMAJOR_AXIS":"6717.865","CLASSIFICATION_TYPE":"U","ARG_OF_PERICENTER":"90.3909","LAUNCH_DATE":"2020-11-25","REF_FRAME":"TEME","SITE":"AFETR","TIME_SYSTEM":"UTC","OBJECT_TYPE":"PAYLOAD","EPHEMERIS_TYPE":"0","RA_OF_ASC_NODE":"104.1863","ELEMENT_SET_NO":"999","PERIOD":"91.329","CENTER_NAME":"EARTH"},{"REV_AT_EPOCH":"14006","PERIAPSIS":"546.166","INCLINATION":"53.0537","MEAN_ANOMALY":"282.1509","BSTAR":"-0.00000241470000","EPOCH":"2023-06-07T15:53:49.473024","ECCENTRICITY":"0.00015230","GP_ID":"233429860","MEAN_ELEMENT_THEORY":"SGP4","OBJECT_ID":"2020-088AK","DECAY_DATE":null,"MEAN_MOTION_DOT":"-0.00000317","APOAPSIS":"548.276","MEAN_MOTION":"15.06397588","RCS_SIZE":"LARGE","FILE":"3927436","COUNTRY_CODE":"US","TLE_LINE1":"1 47155U 20088AK  23158.66237816 -.00000317  00000-0 -24147-5 0  9994","OBJECT_NAME":"STARLINK-1869","NORAD_CAT_ID":"47155","LAUNCH_DATE":"2020-11-25","ARG_OF_PERICENTER":"77.9651","SEMIMAJOR_AXIS":"6925.356","TLE_LINE2":"2 47155  53.0537 147.8493 0001523  77.9651 282.1509 15.06397588140069","MEAN_MOTION_DDOT":"0.0000000000000","CLASSIFICATION_TYPE":"U","REF_FRAME":"TEME","SITE":"AFETR","TIME_SYSTEM":"UTC","EPHEMERIS_TYPE":"0","OBJECT_TYPE":"PAYLOAD","PERIOD":"95.592","ELEMENT_SET_NO":"999","RA_OF_ASC_NODE":"147.8493","CENTER_NAME":"EARTH"},{"RA_OF_ASC_NODE":"137.9782","PERIOD":"95.592","ELEMENT_SET_NO":"999","CENTER_NAME":"EARTH","REF_FRAME":"TEME","EPHEMERIS_TYPE":"0","OBJECT_TYPE":"PAYLOAD","SITE":"AFETR","TIME_SYSTEM":"UTC","TLE_LINE1":"1 47157U 20088AM  23158.63381125  .00000338  00000-0  41562-4 0  9996","COUNTRY_CODE":"US","SEMIMAJOR_AXIS":"6925.356","TLE_LINE2":"2 47157  53.0542 137.9782 0001379  90.8695 269.2452 15.06397523140207","CLASSIFICATION_TYPE":"U","MEAN_MOTION_DDOT":"0.0000000000000","LAUNCH_DATE":"2020-11-25","ARG_OF_PERICENTER":"90.8695","OBJECT_NAME":"STARLINK-1871","NORAD_CAT_ID":"47157","APOAPSIS":"548.176","MEAN_MOTION_DOT":"0.00000338","FILE":"3927436","RCS_SIZE":"LARGE","MEAN_MOTION":"15.06397523","OBJECT_ID":"2020-088AM","MEAN_ELEMENT_THEORY":"SGP4","DECAY_DATE":null,"EPOCH":"2023-06-07T15:12:41.292000","GP_ID":"233428109","ECCENTRICITY":"0.00013790","MEAN_ANOMALY":"269.2452","PERIAPSIS":"546.266","INCLINATION":"53.0542","REV_AT_EPOCH":"14020","BSTAR":"0.00004156200000"},{"SEMIMAJOR_AXIS":"6925.371","TLE_LINE2":"2 47158  53.0544 129.9560 0001307  94.9067 265.2071 15.06392538140275","CLASSIFICATION_TYPE":"U","MEAN_MOTION_DDOT":"0.0000000000000","LAUNCH_DATE":"2020-11-25","ARG_OF_PERICENTER":"94.9067","OBJECT_NAME":"STARLINK-1873","NORAD_CAT_ID":"47158","TLE_LINE1":"1 47158U 20088AN  23158.19242289 -.00000156  00000-0  83991-5 0  9997","COUNTRY_CODE":"US","EPHEMERIS_TYPE":"0","OBJECT_TYPE":"PAYLOAD","TIME_SYSTEM":"UTC","SITE":"AFETR","REF_FRAME":"TEME","CENTER_NAME":"EARTH","RA_OF_ASC_NODE":"129.9560","ELEMENT_SET_NO":"999","PERIOD":"95.593","BSTAR":"0.00000839910000","MEAN_ANOMALY":"265.2071","PERIAPSIS":"546.331","INCLINATION":"53.0544","REV_AT_EPOCH":"14027","GP_ID":"233396147","ECCENTRICITY":"0.00013070","EPOCH":"2023-06-07T04:37:05.337696","DECAY_DATE":null,"OBJECT_ID":"2020-088AN","MEAN_ELEMENT_THEORY":"SGP4","FILE":"3927174","RCS_SIZE":"LARGE","MEAN_MOTION":"15.06392538","APOAPSIS":"548.142","MEAN_MOTION_DOT":"-0.00000156"}];
